SL-14 R/B               
1 16792U 86046B   26087.93605818  .00000569  00000+0  62619-4 0  9999
2 16792  82.4803  61.9916 0023556 160.7329 199.4783 14.85608860129260
SL-14 R/B               
1 16882U 86055B   26087.81711267  .00000465  00000+0  50774-4 0  9996
2 16882  82.5170 108.6912 0017294 268.8257 264.1432 14.85659155122206
AJISAI (EGS)            
1 16908U 86061A   26087.90303141 -.00000097  00000+0  23292-5 0  9998
2 16908  50.0112  34.2653 0011330 336.5299  66.7187 12.44515644470397
SL-14 R/B               
1 17567U 87024B   26087.89511171  .00000558  00000+0  60664-4 0  9996
2 17567  82.5253  74.7071 0017816 192.2862 167.7923 14.86150256 90981
COSMOS 1833             
1 17589U 87027A   26087.83194494 -.00000277  00000+0 -12235-3 0  9992
2 17589  70.9172 285.7843 0023280 186.3633 173.7197 14.13047471 13023
SL-16 R/B               
1 17590U 87027B   26087.89125410 -.00000013  00000+0  17089-4 0  9992
2 17590  71.0014 236.0285 0002856  95.6456 264.4993 14.17165668 18066
SL-14 R/B               
1 17912U 87038B   26087.56312238  .00000505  00000+0  55608-4 0  9996
2 17912  82.4977 279.0230 0020746 101.4600 258.8947 14.85385999 82030
COSMOS 1844             
1 17973U 87041A   26087.91746357  .00000381  00000+0  22250-3 0  9997
2 17973  70.9014 353.6209 0031043 349.7939  10.2548 14.14556676  6307
SL-14 R/B               
1 18153U 87055B   26087.94076559  .00000465  00000+0  50824-4 0  9998
2 18153  82.5007 330.8906 0019515 313.0855  46.8727 14.85648331 72799
COSMOS 1867             
1 18187U 87060A   26087.86276222 -.00000011  00000+0  33519-4 0  9991
2 18187  65.0093 253.0082 0014815 279.7795  80.1617 14.31505945 22683
SL-14 R/B               
1 18749U 88001B   26087.80274765  .00000521  00000+0  57288-4 0  9999
2 18749  82.5161 177.3895 0018331 170.5806 189.5757 14.85548571 44869
COSMOS 1933             
1 18958U 88020A   26087.77362977  .00004706  00000+0  22893-3 0  9993
2 18958  82.5121 232.0257 0005185 124.8843 235.2879 15.18160014 53126
