CCSDS_OMM_VERS = 2.0
CREATION_DATE  = 
ORIGINATOR     = 

OBJECT_NAME    = SL-14 R/B
OBJECT_ID      = 1986-046B
CENTER_NAME    = EARTH
REF_FRAME      = TEME
TIME_SYSTEM    = UTC
MEAN_ELEMENT_THEORY = SGP/SGP4

EPOCH          = 2026-03-28T22:27:55.426752
MEAN_MOTION    = 14.85608860
ECCENTRICITY   = .00235564
INCLINATION    = 82.4803
RA_OF_ASC_NODE = 61.9916
ARG_OF_PERICENTER = 160.7329
MEAN_ANOMALY   = 199.4783

EPHEMERIS_TYPE = 0
CLASSIFICATION_TYPE = U
NORAD_CAT_ID   = 16792
ELEMENT_SET_NO = 999
REV_AT_EPOCH   = 12926
BSTAR          = .62618914E-4
MEAN_MOTION_DOT = .569E-5
MEAN_MOTION_DDOT = 0

CCSDS_OMM_VERS = 2.0
CREATION_DATE  = 
ORIGINATOR     = 

OBJECT_NAME    = SL-14 R/B
OBJECT_ID      = 1986-055B
CENTER_NAME    = EARTH
REF_FRAME      = TEME
TIME_SYSTEM    = UTC
MEAN_ELEMENT_THEORY = SGP/SGP4

EPOCH          = 2026-03-28T19:36:38.534688
MEAN_MOTION    = 14.85659155
ECCENTRICITY   = .00172941
INCLINATION    = 82.5170
RA_OF_ASC_NODE = 108.6912
ARG_OF_PERICENTER = 268.8257
MEAN_ANOMALY   = 264.1432

EPHEMERIS_TYPE = 0
CLASSIFICATION_TYPE = U
NORAD_CAT_ID   = 16882
ELEMENT_SET_NO = 999
REV_AT_EPOCH   = 12220
BSTAR          = .50774485E-4
MEAN_MOTION_DOT = .465E-5
MEAN_MOTION_DDOT = 0

CCSDS_OMM_VERS = 2.0
CREATION_DATE  = 
ORIGINATOR     = 

OBJECT_NAME    = AJISAI (EGS)
OBJECT_ID      = 1986-061A
CENTER_NAME    = EARTH
REF_FRAME      = TEME
TIME_SYSTEM    = UTC
MEAN_ELEMENT_THEORY = SGP/SGP4

EPOCH          = 2026-03-28T21:40:21.913824
MEAN_MOTION    = 12.44515644
ECCENTRICITY   = .00113306
INCLINATION    = 50.0112
RA_OF_ASC_NODE = 34.2653
ARG_OF_PERICENTER = 336.5299
MEAN_ANOMALY   = 66.7187

EPHEMERIS_TYPE = 0
CLASSIFICATION_TYPE = U
NORAD_CAT_ID   = 16908
ELEMENT_SET_NO = 999
REV_AT_EPOCH   = 47039
BSTAR          = .2329232E-5
MEAN_MOTION_DOT = -.97E-6
MEAN_MOTION_DDOT = 0

CCSDS_OMM_VERS = 2.0
CREATION_DATE  = 
ORIGINATOR     = 

OBJECT_NAME    = SL-14 R/B
OBJECT_ID      = 1987-024B
CENTER_NAME    = EARTH
REF_FRAME      = TEME
TIME_SYSTEM    = UTC
MEAN_ELEMENT_THEORY = SGP/SGP4

EPOCH          = 2026-03-28T21:28:57.651744
MEAN_MOTION    = 14.86150256
ECCENTRICITY   = .0017816
INCLINATION    = 82.5253
RA_OF_ASC_NODE = 74.7071
ARG_OF_PERICENTER = 192.2862
MEAN_ANOMALY   = 167.7923

EPHEMERIS_TYPE = 0
CLASSIFICATION_TYPE = U
NORAD_CAT_ID   = 17567
ELEMENT_SET_NO = 999
REV_AT_EPOCH   = 9098
BSTAR          = .60664067E-4
MEAN_MOTION_DOT = .558E-5
MEAN_MOTION_DDOT = 0

CCSDS_OMM_VERS = 2.0
CREATION_DATE  = 
ORIGINATOR     = 

OBJECT_NAME    = COSMOS 1833
OBJECT_ID      = 1987-027A
CENTER_NAME    = EARTH
REF_FRAME      = TEME
TIME_SYSTEM    = UTC
MEAN_ELEMENT_THEORY = SGP/SGP4

EPOCH          = 2026-03-28T19:58:00.042816
MEAN_MOTION    = 14.13047471
ECCENTRICITY   = .00232801
INCLINATION    = 70.9172
RA_OF_ASC_NODE = 285.7843
ARG_OF_PERICENTER = 186.3633
MEAN_ANOMALY   = 173.7197

EPHEMERIS_TYPE = 0
CLASSIFICATION_TYPE = U
NORAD_CAT_ID   = 17589
ELEMENT_SET_NO = 999
REV_AT_EPOCH   = 1302
BSTAR          = -.12234925E-3
MEAN_MOTION_DOT = -.277E-5
MEAN_MOTION_DDOT = 0

CCSDS_OMM_VERS = 2.0
CREATION_DATE  = 
ORIGINATOR     = 

OBJECT_NAME    = SL-16 R/B
OBJECT_ID      = 1987-027B
CENTER_NAME    = EARTH
REF_FRAME      = TEME
TIME_SYSTEM    = UTC
MEAN_ELEMENT_THEORY = SGP/SGP4

EPOCH          = 2026-03-28T21:23:24.354240
MEAN_MOTION    = 14.17165668
ECCENTRICITY   = .00028567
INCLINATION    = 71.0014
RA_OF_ASC_NODE = 236.0285
ARG_OF_PERICENTER = 95.6456
MEAN_ANOMALY   = 264.4993

EPHEMERIS_TYPE = 0
CLASSIFICATION_TYPE = U
NORAD_CAT_ID   = 17590
ELEMENT_SET_NO = 999
REV_AT_EPOCH   = 1806
BSTAR          = .17089008E-4
MEAN_MOTION_DOT = -.13E-6
MEAN_MOTION_DDOT = 0

CCSDS_OMM_VERS = 2.0
CREATION_DATE  = 
ORIGINATOR     = 

OBJECT_NAME    = SL-14 R/B
OBJECT_ID      = 1987-038B
CENTER_NAME    = EARTH
REF_FRAME      = TEME
TIME_SYSTEM    = UTC
MEAN_ELEMENT_THEORY = SGP/SGP4

EPOCH          = 2026-03-28T13:30:53.773632
MEAN_MOTION    = 14.85385999
ECCENTRICITY   = .0020746
INCLINATION    = 82.4977
RA_OF_ASC_NODE = 279.0230
ARG_OF_PERICENTER = 101.4600
MEAN_ANOMALY   = 258.8947

EPHEMERIS_TYPE = 0
CLASSIFICATION_TYPE = U
NORAD_CAT_ID   = 17912
ELEMENT_SET_NO = 999
REV_AT_EPOCH   = 8203
BSTAR          = .55608E-4
MEAN_MOTION_DOT = .505E-5
MEAN_MOTION_DDOT = 0

CCSDS_OMM_VERS = 2.0
CREATION_DATE  = 
ORIGINATOR     = 

OBJECT_NAME    = COSMOS 1844
OBJECT_ID      = 1987-041A
CENTER_NAME    = EARTH
REF_FRAME      = TEME
TIME_SYSTEM    = UTC
MEAN_ELEMENT_THEORY = SGP/SGP4

EPOCH          = 2026-03-28T22:01:08.852448
MEAN_MOTION    = 14.14556676
ECCENTRICITY   = .00310435
INCLINATION    = 70.9014
RA_OF_ASC_NODE = 353.6209
ARG_OF_PERICENTER = 349.7939
MEAN_ANOMALY   = 10.2548

EPHEMERIS_TYPE = 0
CLASSIFICATION_TYPE = U
NORAD_CAT_ID   = 17973
ELEMENT_SET_NO = 999
REV_AT_EPOCH   = 630
BSTAR          = .22249969E-3
MEAN_MOTION_DOT = .381E-5
MEAN_MOTION_DDOT = 0

CCSDS_OMM_VERS = 2.0
CREATION_DATE  = 
ORIGINATOR     = 

OBJECT_NAME    = SL-14 R/B
OBJECT_ID      = 1987-055B
CENTER_NAME    = EARTH
REF_FRAME      = TEME
TIME_SYSTEM    = UTC
MEAN_ELEMENT_THEORY = SGP/SGP4

EPOCH          = 2026-03-28T22:34:42.146976
MEAN_MOTION    = 14.85648331
ECCENTRICITY   = .00195153
INCLINATION    = 82.5007
RA_OF_ASC_NODE = 330.8906
ARG_OF_PERICENTER = 313.0855
MEAN_ANOMALY   = 46.8727

EPHEMERIS_TYPE = 0
CLASSIFICATION_TYPE = U
NORAD_CAT_ID   = 18153
ELEMENT_SET_NO = 999
REV_AT_EPOCH   = 7279
BSTAR          = .50823989E-4
MEAN_MOTION_DOT = .465E-5
MEAN_MOTION_DDOT = 0

CCSDS_OMM_VERS = 2.0
CREATION_DATE  = 
ORIGINATOR     = 

OBJECT_NAME    = COSMOS 1867
OBJECT_ID      = 1987-060A
CENTER_NAME    = EARTH
REF_FRAME      = TEME
TIME_SYSTEM    = UTC
MEAN_ELEMENT_THEORY = SGP/SGP4

EPOCH          = 2026-03-28T20:42:22.655808
MEAN_MOTION    = 14.31505945
ECCENTRICITY   = .0014815
INCLINATION    = 65.0093
RA_OF_ASC_NODE = 253.0082
ARG_OF_PERICENTER = 279.7795
MEAN_ANOMALY   = 80.1617

EPHEMERIS_TYPE = 0
CLASSIFICATION_TYPE = U
NORAD_CAT_ID   = 18187
ELEMENT_SET_NO = 999
REV_AT_EPOCH   = 2268
BSTAR          = .33518719E-4
MEAN_MOTION_DOT = -.11E-6
MEAN_MOTION_DDOT = 0

CCSDS_OMM_VERS = 2.0
CREATION_DATE  = 
ORIGINATOR     = 

OBJECT_NAME    = SL-14 R/B
OBJECT_ID      = 1988-001B
CENTER_NAME    = EARTH
REF_FRAME      = TEME
TIME_SYSTEM    = UTC
MEAN_ELEMENT_THEORY = SGP/SGP4

EPOCH          = 2026-03-28T19:15:57.396960
MEAN_MOTION    = 14.85548571
ECCENTRICITY   = .00183319
INCLINATION    = 82.5161
RA_OF_ASC_NODE = 177.3895
ARG_OF_PERICENTER = 170.5806
MEAN_ANOMALY   = 189.5757

EPHEMERIS_TYPE = 0
CLASSIFICATION_TYPE = U
NORAD_CAT_ID   = 18749
ELEMENT_SET_NO = 999
REV_AT_EPOCH   = 4486
BSTAR          = .57287593E-4
MEAN_MOTION_DOT = .521E-5
MEAN_MOTION_DDOT = 0

CCSDS_OMM_VERS = 2.0
CREATION_DATE  = 
ORIGINATOR     = 

OBJECT_NAME    = COSMOS 1933
OBJECT_ID      = 1988-020A
CENTER_NAME    = EARTH
REF_FRAME      = TEME
TIME_SYSTEM    = UTC
MEAN_ELEMENT_THEORY = SGP/SGP4

EPOCH          = 2026-03-28T18:34:01.612128
MEAN_MOTION    = 15.18160014
ECCENTRICITY   = .00051857
INCLINATION    = 82.5121
RA_OF_ASC_NODE = 232.0257
ARG_OF_PERICENTER = 124.8843
MEAN_ANOMALY   = 235.2879

EPHEMERIS_TYPE = 0
CLASSIFICATION_TYPE = U
NORAD_CAT_ID   = 18958
ELEMENT_SET_NO = 999
REV_AT_EPOCH   = 5312
BSTAR          = .2289312E-3
MEAN_MOTION_DOT = .4706E-4
MEAN_MOTION_DDOT = 0

